LEMUR-2-PETERG          
1 42841U 17042S   26068.48235713  .00023240  00000+0  81076-3 0  9993
2 42841  97.3980 253.6596 0003700 341.6938  18.4169 15.29611459473171
STARLINK-3675           
1 51963U 22025H   26068.17013745 -.00003333  00000+0 -10048-3 0  9994
2 51963  53.1619  15.9713 0001378  90.3380 269.7779 15.30188338221090
